     2.10           N: GPS NAV DATA                         RINEX VERSION / TYPE
RTKCONV 2.4.2       TB                  20170223 141856 UTC PGM / RUN BY / DATE 
log: E:\kutat\rtklib_mops\teszt_051_2017_bud2\raw\bud21937  COMMENT             
format: NovAtel OEM6                                        COMMENT             
                                                            END OF HEADER       
22 17  2 20 10  0  0.0  .957679003477E-04 -.115960574476E-10  .000000000000E+00
     .920000000000E+02  .350000000000E+01  .568452249746E-08 -.435461754181E+00
     .240281224251E-06  .741761724930E-02  .684335827827E-05  .515358044624E+04
     .122400000000E+06 -.894069671631E-07  .238250532640E+00  .558793544769E-08
     .923760431610E+00  .226656250000E+03 -.180231930442E+01 -.872322050001E-08
     .120362156424E-09  .100000000000E+01  .193700000000E+04  .000000000000E+00
     .240000000000E+01  .000000000000E+00 -.176951289177E-07  .920000000000E+02
     .115206000000E+06  .400000000000E+01
19 17  2 20 10  0  0.0 -.512605067343E-03  .102318153949E-11  .000000000000E+00
     .820000000000E+02 -.746562500000E+02  .419696053454E-08 -.309144665112E+01
    -.393390655518E-05  .101732853800E-01  .673346221447E-05  .515365596390E+04
     .122400000000E+06  .372529029846E-07 -.171959174200E+01 -.169500708580E-06
     .976039513472E+00  .257031250000E+03  .919656958101E+00 -.784925552443E-08
    -.207151485834E-10  .100000000000E+01  .193700000000E+04  .000000000000E+00
     .240000000000E+01  .000000000000E+00 -.153668224812E-07  .820000000000E+02
     .115206000000E+06  .400000000000E+01
23 17  2 20 10  0  0.0 -.205811578780E-03 -.909494701773E-12  .000000000000E+00
     .103000000000E+03  .759375000000E+01  .492984820511E-08 -.115837577082E+01
     .303611159325E-06  .112681085011E-01  .767409801483E-05  .515379061127E+04
     .122400000000E+06  .307336449623E-06  .132038830416E+01  .260770320892E-07
     .944446982705E+00  .220375000000E+03 -.249874090307E+01 -.814962517889E-08
    -.316441752498E-09  .100000000000E+01  .193700000000E+04  .000000000000E+00
     .340000000000E+01  .000000000000E+00 -.200234353542E-07  .103000000000E+03
     .115206000000E+06  .400000000000E+01
23 17  2 20  9 59 44.0 -.205812044442E-03 -.909494701773E-12  .000000000000E+00
     .280000000000E+02  .759375000000E+01  .492984820511E-08 -.116070947918E+01
     .303611159325E-06  .112681047758E-01  .767409801483E-05  .515379060936E+04
     .122384000000E+06  .307336449623E-06  .132038843143E+01  .260770320892E-07
     .944446990019E+00  .220375000000E+03 -.249874073337E+01 -.814998233662E-08
    -.316084594764E-09  .100000000000E+01  .193700000000E+04  .000000000000E+00
     .240000000000E+01  .000000000000E+00 -.200234353542E-07  .280000000000E+02
     .115656000000E+06  .400000000000E+01
30 17  2 20 10  0  0.0  .160602387041E-03 -.113686837722E-12  .000000000000E+00
     .450000000000E+02  .748125000000E+02  .461090634847E-08 -.264668250516E+01
     .384822487831E-05  .243888178375E-02  .809878110886E-05  .515371661758E+04
     .122400000000E+06  .186264514923E-07  .243685536190E+01  .558793544769E-08
     .949116744488E+00  .218437500000E+03  .306261304633E+01 -.810105172704E-08
    -.260725145963E-10  .100000000000E+01  .193700000000E+04  .000000000000E+00
     .240000000000E+01  .000000000000E+00  .372529029846E-08  .450000000000E+02
     .116406000000E+06  .400000000000E+01
 5 17  2 20  9 59 44.0 -.596577301621E-04  .204636307899E-11  .000000000000E+00
     .270000000000E+02 -.321875000000E+01  .514521431883E-08  .895492045707E+00
     .912696123123E-07  .490601395722E-02  .721588730812E-05  .515368401337E+04
     .122384000000E+06  .000000000000E+00  .265093492128E+00  .484287738800E-07
     .947001452720E+00  .231875000000E+03  .557215152099E+00 -.831534636755E-08
     .517878714584E-10  .100000000000E+01  .193700000000E+04  .000000000000E+00
     .240000000000E+01  .000000000000E+00 -.107102096081E-07  .270000000000E+02
     .118326000000E+06  .400000000000E+01
16 17  2 20  9 59 44.0  .268565490842E-04  .113686837722E-11  .000000000000E+00
     .400000000000E+01  .325000000000E+02  .385158900557E-08  .106287362152E+01
     .179931521416E-05  .919546477962E-02  .488013029099E-05  .515365398026E+04
     .122384000000E+06 -.242143869400E-07 -.278620323186E+01  .987201929092E-07
     .990368531270E+00  .299937500000E+03  .399785982062E+00 -.798176104381E-08
    -.678599694973E-11  .100000000000E+01  .193700000000E+04  .000000000000E+00
     .240000000000E+01  .000000000000E+00 -.107102096081E-07  .400000000000E+01
     .121386000000E+06  .400000000000E+01
 7 17  2 20 12  0  0.0  .380740035325E-03 -.386535248253E-11  .000000000000E+00
     .340000000000E+02  .591562500000E+02  .424731977506E-08 -.160481312787E+01
     .294297933578E-05  .101438343991E-01  .827759504318E-05  .515360653687E+04
     .129600000000E+06  .782310962677E-07  .239648541629E+01 -.201165676117E-06
     .963342525620E+00  .221968750000E+03 -.261436429095E+01 -.779818196844E-08
    -.903609067516E-10  .100000000000E+01  .193700000000E+04  .000000000000E+00
     .240000000000E+01  .000000000000E+00 -.111758708954E-07  .340000000000E+02
     .122406000000E+06  .400000000000E+01
 2 17  2 20 12  0  0.0  .472402665764E-03 -.682121026330E-11  .000000000000E+00
     .160000000000E+02 -.337812500000E+02  .502413784694E-08 -.596759760296E+00
    -.158324837685E-05  .166666297009E-01  .919029116631E-05  .515373672485E+04
     .129600000000E+06 -.121071934700E-06 -.812552036865E+00  .264495611191E-06
     .945556070640E+00  .199406250000E+03 -.201835452340E+01 -.847535303247E-08
     .278940190407E-09  .100000000000E+01  .193700000000E+04  .000000000000E+00
     .240000000000E+01  .000000000000E+00 -.204890966415E-07  .160000000000E+02
     .122406000000E+06  .400000000000E+01
 6 17  2 20 12  0  0.0  .314998440444E-03  .500222085975E-11  .000000000000E+00
     .450000000000E+02 -.345937500000E+02  .440839791318E-08 -.686537016680E+00
    -.193528831005E-05  .686447601765E-03  .932626426220E-05  .515362380791E+04
     .129600000000E+06 -.465661287308E-07 -.769628876418E+00  .167638063431E-07
     .966484247525E+00  .204468750000E+03 -.134944077758E+01 -.792818738368E-08
     .259296515026E-09  .100000000000E+01  .193700000000E+04  .000000000000E+00
     .240000000000E+01  .000000000000E+00  .419095158577E-08  .450000000000E+02
     .122406000000E+06  .400000000000E+01
16 17  2 20 11 59 44.0  .268644653261E-04  .113686837722E-11  .000000000000E+00
     .130000000000E+02  .394062500000E+02  .390016245742E-08  .211316851603E+01
     .199303030968E-05  .919564196374E-02  .488385558128E-05  .515365214539E+04
     .129584000000E+06 -.149011611938E-06 -.278626099518E+01  .521540641785E-07
     .990368831168E+00  .302875000000E+03  .399680082885E+00 -.791890128260E-08
     .653598653579E-10  .100000000000E+01  .193700000000E+04  .000000000000E+00
     .240000000000E+01  .000000000000E+00 -.107102096081E-07  .130000000000E+02
     .122406000000E+06  .400000000000E+01
 9 17  2 20 12  0  0.0  .307395122945E-03  .761701812735E-11  .000000000000E+00
     .480000000000E+02  .393750000000E+01  .474805491840E-08  .132154162927E+01
     .409781932831E-07  .911130802706E-03  .772997736931E-05  .515368628502E+04
     .129600000000E+06 -.149011611938E-07  .131761513520E+01  .298023223877E-07
     .953558160851E+00  .225000000000E+03  .176293899362E+01 -.809426573009E-08
    -.326799326789E-09  .100000000000E+01  .193700000000E+04  .000000000000E+00
     .240000000000E+01  .000000000000E+00  .139698386192E-08  .480000000000E+02
     .122406000000E+06  .400000000000E+01
 5 17  2 20 12  0  0.0 -.596428290009E-04  .204636307899E-11  .000000000000E+00
     .280000000000E+02 -.259375000000E+01  .517842998811E-08  .194802593780E+01
    -.782310962677E-07  .490600569174E-02  .738352537155E-05  .515368381882E+04
     .129600000000E+06 -.134110450745E-06  .265033121888E+00  .353902578354E-07
     .947002264640E+00  .232312500000E+03  .557194624433E+00 -.825034365993E-08
     .140362989539E-09  .100000000000E+01  .193700000000E+04  .000000000000E+00
     .240000000000E+01  .000000000000E+00 -.107102096081E-07  .280000000000E+02
     .122406000000E+06  .400000000000E+01
30 17  2 20 12  0  0.0  .160601455718E-03 -.113686837722E-12  .000000000000E+00
     .460000000000E+02  .629375000000E+02  .461233497941E-08 -.159710732099E+01
     .317022204399E-05  .243981636595E-02  .794045627117E-05  .515371342659E+04
     .129600000000E+06 -.819563865662E-07  .243679762931E+01  .931322574615E-08
     .949116510421E+00  .221375000000E+03  .306319399158E+01 -.804819238237E-08
    -.960754304987E-10  .100000000000E+01  .193700000000E+04  .000000000000E+00
     .240000000000E+01  .000000000000E+00  .372529029846E-08  .460000000000E+02
     .122406000000E+06  .400000000000E+01
23 17  2 20 11 59 44.0 -.205818563700E-03 -.909494701773E-12  .000000000000E+00
     .290000000000E+02  .403125000000E+01  .509699802471E-08 -.110542891367E+00
     .191852450371E-06  .112685142085E-01  .741332769394E-05  .515379191971E+04
     .129584000000E+06 -.745058059692E-08  .132032860393E+01  .139698386192E-06
     .944443176192E+00  .225406250000E+03 -.249879510711E+01 -.847321008607E-08
    -.341085636157E-09  .100000000000E+01  .193700000000E+04  .000000000000E+00
     .240000000000E+01  .000000000000E+00 -.200234353542E-07  .290000000000E+02
     .122406000000E+06  .400000000000E+01
